ORBCOMM FM33 [-]        
1 25983U 99065D   24071.99593405  .00001351  00000+0  49483-3 0  9994
2 25983  45.0306  31.7951 0009660 265.4011 198.6811 14.37397603269580
ORBCOMM FM36 [-]        
1 25984U 99065E   24071.43999689  .00001193  00000+0  46205-3 0  9991
2 25984  45.0393 118.8950 0002674 171.6404 188.4489 14.35264686267875
ORBCOMM FM35 [+]        
1 25985U 99065F   24071.81360979  .00000937  00000+0  37593-3 0  9993
2 25985  45.0395 119.6017 0005066 250.6845 109.3455 14.34896549268511
ORBCOMM FM34 [-]        
1 25986U 99065G   24071.85211956  .00000968  00000+0  38724-3 0  9999
2 25986  45.0388 119.9405 0004563 211.8522 148.2050 14.34855318268488
ORBCOMM FM38 [-]        
1 33060U 08031A   24071.50467572  .00002340  00000+0  35676-3 0  9992
2 33060  48.4426 352.9206 0005569 219.3410 140.7100 14.77089013846252
ORBCOMM FM41 [-]        
1 33061U 08031B   24071.81564910  .00002218  00000+0  34183-3 0  9997
2 33061  48.4461 357.9297 0004671 207.5560 182.2074 14.76826236846240
ORBCOMM FM29 [-]        
1 33062U 08031C   24072.23016628  .00002314  00000+0  35595-3 0  9998
2 33062  48.4413   3.9966 0006461 206.8176 306.4994 14.76747058846169
ORBCOMM FM39 [-]        
1 33063U 08031D   24071.85712092  .00002004  00000+0  31893-3 0  9997
2 33063  48.4422  25.8406 0007191 181.1234 178.9664 14.75801802845840
